[{"OBJECT_NAME":"GALAXY 15 (G-15)","OBJECT_ID":"2005-041A","EPOCH":"2026-06-16T17:11:09.038976","MEAN_MOTION":0.98943614,"ECCENTRICITY":0.0014354,"INCLINATION":3.5359,"RA_OF_ASC_NODE":77.2731,"ARG_OF_PERICENTER":137.8081,"MEAN_ANOMALY":105.3728,"EPHEMERIS_TYPE":0,"CLASSIFICATION_TYPE":"U","NORAD_CAT_ID":28884,"ELEMENT_SET_NO":999,"REV_AT_EPOCH":7543,"BSTAR":0,"MEAN_MOTION_DOT":-2.67e-6,"MEAN_MOTION_DDOT":0}]
